SL-16 R/B               
1 26070U 00006B   22072.56232691 -.00000172  00000+0 -63593-4 0  9999
2 26070  70.9991 280.7305 0018694 242.8783 117.0434 14.15478168142348
MTI                     
1 26102U 00014A   22072.36574304  .00121761  00000+0  72583-3 0  9996
2 26102  97.4612   0.2449 0006879  52.3665 307.8330 15.77546647223449
TITAN 4B R/B            
1 26474U 00047B   22072.54215399  .00001464  00000+0  13484-3 0  9992
2 26474  67.9929 129.7850 0059148 224.0049 135.6378 14.96512515174090
ENVISAT                 
1 27386U 02009A   22072.58863750  .00000198  00000+0  78759-4 0  9999
2 27386  98.1754  58.2345 0001301  90.3344  22.1906 14.38087001 49686
IDEFIX & ARIANE 42P R/B 
1 27422U 02021B   22072.47757266  .00000174  00000+0  84669-4 0  9997
2 27422  98.4391  21.4126 0012521 154.6078 205.5722 14.29370867 35740
AQUA                    
1 27424U 02022A   22072.59146588  .00000609  00000+0  14505-3 0  9996
2 27424  98.2386  15.4498 0001399 106.0414  67.0016 14.57165420 56226
CZ-4B R/B               
1 27432U 02024C   22072.59688163  .00000023  00000+0  35783-4 0  9999
2 27432  99.0717  96.3039 0050358 186.2736 282.7597 14.14127735 23276
MIDORI II (ADEOS-II)    
1 27597U 02056A   22072.45433982  .00000192  00000+0  95820-4 0  9993
2 27597  98.5971  17.8218 0000604  22.2568 337.8639 14.27566737  2271
H-2A R/B                
1 27601U 02056E   22072.56262984  .00000091  00000+0  47605-4 0  9999
2 27601  98.1802  84.6526 0071957 186.4205 284.0005 14.32038397  5455
CZ-4B R/B               
1 28059U 03049C   22072.56991025  .00000303  00000+0  84524-4 0  9992
2 28059  98.5131   7.9127 0050127   1.7459 358.3902 14.52726400974898
CZ-2C R/B               
1 28222U 04012C   22072.53338678  .00004304  00000+0  25009-3 0  9998
2 28222  97.7630  51.7108 0046430  23.1134  90.4478 15.11748891981738
SL-16 R/B               
1 28353U 04021B   22072.37456576 -.00000082  00000+0 -18284-4 0  9992
2 28353  71.0022  49.7922 0002479  91.6282 268.5124 14.14263085916769
CZ-4B R/B               
1 28415U 04035C   22072.56108910  .00002142  00000+0  14100-3 0  9992
2 28415  97.5306 115.0566 0050306 349.8012  10.2190 15.07604882959149
CZ-2C R/B               
1 28480U 04046B   22072.56261069  .00000038  00000+0  29108-4 0  9998
2 28480  98.0596  67.9120 0142457 145.9438 324.1023 14.25794723900775
ARIANE 5 R/B            
1 28499U 04049H   22072.35584262  .00000504  00000+0  68950-4 0  9997
2 28499  98.0845 188.3178 0092286  25.6768  38.4558 14.80277852929866
CZ-2D R/B               
1 28738U 05024B   22072.54148311  .00002987  00000+0  17193-3 0  9998
2 28738  97.3555  84.0013 0012654 143.4231 216.7867 15.13119909917245
SUZAKU (ASTRO-EII)      
1 28773U 05025A   22072.53185081  .00007272  00000+0  32607-3 0  9991
2 28773  31.3791 208.4994 0004378 113.9146 246.1961 15.19853524920414
ALOS (DAICHI)           
1 28931U 06002A   22072.49674480  .00000632  00000+0  13193-3 0  9996
2 28931  97.9240  41.0106 0000449  37.4096 322.7135 14.63025949860396
H-2A R/B                
1 28932U 06002B   22072.59528333  .00002894  00000+0  26383-3 0  9990
2 28932  98.3048 109.8142 0088248  46.9906  67.2135 14.93063738875735
AKARI (ASTRO-F)         
1 28939U 06005A   22072.13732905  .00016207  00000+0  34945-3 0  9998
2 28939  98.2083 133.2567 0076856 257.9657 101.2966 15.41510334878222
RESURS-DK 1             
1 29228U 06021A   22072.25638901  .00001410  00000+0  11187-3 0  9995
2 29228  69.9376  14.1250 0006851 233.4349 126.6182 15.02973791867928
GENESIS 1               
1 29252U 06029A   22072.28758979  .00005416  00000+0  24991-3 0  9998
2 29252  64.5233  26.6823 0060065 277.0344  82.3951 15.19752153864359
CZ-4B R/B               
1 29507U 06046C   22072.51395364  .00001319  00000+0  10472-3 0  9998
2 29507  97.7322 102.9879 0048611 186.9363 173.1195 15.01356220840472
CZ-2C R/B               
1 31114U 07010B   22072.47466310  .00000181  00000+0  10335-3 0  9996
2 31114  98.2340 252.2771 0059021 217.0554 142.6541 14.19402448772944
COSMO-SKYMED 1          
1 31598U 07023A   22072.46936530  .00000808  00000+0  10806-3 0  9990
2 31598  97.8862 257.5121 0001389  93.1031 267.0309 14.82163079798742
GENESIS 2               
1 31789U 07028A   22072.42349837  .00004755  00000+0  23408-3 0  9998
2 31789  64.4967  69.1767 0037056 329.6589  30.2389 15.18675914811311
COSMOS 2428             
1 31792U 07029A   22072.32147051  .00000341  00000+0  21026-3 0  9997
2 31792  70.9376  21.4308 0009600 212.5295 147.5236 14.12484465758271
SL-16 R/B               
1 31793U 07029B   22072.51526060 -.00000172  00000+0 -64978-4 0  9998
2 31793  70.9781 354.4056 0002138 275.6307 257.3628 14.14460846759291
KORONAS-FOTON           
1 33504U 09003A   22072.35163350  .00002805  00000+0  14150-3 0  9994
2 33504  82.4415 311.7386 0017067 242.7229 117.2266 15.16618572723390
H-2A R/B                
1 38341U 12025E   22072.56625740  .00001055  00000+0  12951-3 0  9998
2 38341  98.5167 281.4095 0055034 356.2715   3.8080 14.84482465531422
CUSAT 2 & FALCON 9 R/B  
1 39271U 13055G   22072.34458545  .00022455  00000+0  49975-3 0  9991
2 39271  80.9605 300.5937 0546733  51.5599 313.3371 14.58508906442749
CZ-2C R/B               
1 39364U 13059B   22072.11789957  .00006510  00000+0  22245-3 0  9992
2 39364  97.1748 128.7533 0043257 317.8483  41.9434 15.29711242465472
SL-4 R/B                
1 39679U 14021B   22072.43615814  .00005686  00000+0  28140-3 0  9999
2 39679  51.6150  42.8858 0167285 344.8437  14.7556 15.07898364434629
ALOS-2                  
1 39766U 14029A   22072.23097723 -.00000112  00000+0 -80773-5 0  9998
2 39766  97.9195 170.7448 0001638  93.2858 266.8520 14.79470753421404
CZ-2C R/B               
1 40306U 14071B   22072.45373118  .00030687  00000+0  45694-3 0  9995
2 40306  97.4093  42.0809 0012552  22.8547 337.3263 15.54983669411945
SL-27 R/B               
1 40354U 14084B   22072.53694975  .00006067  00000+0  13750-3 0  9991
2 40354  74.7388 154.5899 0035289  20.1779 340.0819 15.42589073405805
YAOGAN 29               
1 41038U 15069A   22072.52699205  .00000301  00000+0  46216-4 0  9994
2 41038  98.0554  72.2941 0001816  55.1604 304.9785 14.80593472340096
ASTRO-H (HITOMI)        
1 41337U 16012A   22072.32843673  .00001352  00000+0  10163-3 0  9991
2 41337  31.0055 309.7500 0012300 217.5207 142.4570 14.99131710332689
HXMT (HUIYAN)           
1 42758U 17034A   22072.43755625  .00002654  00000+0  17455-3 0  9992
2 42758  43.0162 156.1448 0008034  28.6718  29.0317 15.09826603261663
CZ-2C R/B               
1 43521U 18054D   22072.51271206  .00003796  00000+0  19915-3 0  9992
2 43521  35.1522 229.3773 0080940 314.3459  45.0643 15.12428937205144
AEOLUS                  
1 43600U 18066A   22072.51678827  .00089210  00000+0  34462-3 0  9992
2 43600  96.7114  80.0458 0004351 121.6009 238.5689 15.87016647205913
SAOCOM 1A               
1 43641U 18076A   22072.27521868  .00000267  00000+0  40039-4 0  9996
2 43641  97.8875 260.3428 0001444  83.8009 276.3353 14.82157760185486
SAOCOM 1B               
1 46265U 20059A   22072.32935382  .00000267  00000+0  40123-4 0  9995
2 46265  97.8879 259.4658 0001440  81.1318  41.3940 14.82154879 82889
TIANHE                  
1 48274U 21035A   22072.47364123  .00022286  00000+0  24462-3 0  9999
2 48274  41.4700  82.0228 0004897 161.5629 324.4683 15.62669239 49803
